{"type": "FeatureCollection", "features": [ {"type": "Feature", "properties": {"norad_id": 33841, "name": "COSMOS 2251 DEB", "group": "cosmos-2251-debris", "lat": -39.70065981052883, "lon": -104.76299669891718, "alt_km": 758.848608017368, "timestamp": "2025-12-17T15:50:10.174554+00:00", "meta": {"OBJECT_NAME": "COSMOS 2251 DEB", "OBJECT_ID": "1993-036CJ", "EPOCH": "2025-12-17T04:53:54.349728", "MEAN_MOTION": 14.37867342, "ECCENTRICITY": 0.00207327, "INCLINATION": 74.0378, "RA_OF_ASC_NODE": 269.8223, "ARG_OF_PERICENTER": 349.3649, "MEAN_ANOMALY": 131.1068, "EPHEMERIS_TYPE": 0, "CLASSIFICATION_TYPE": "U", "NORAD_CAT_ID": 33841, "ELEMENT_SET_NO": 999, "REV_AT_EPOCH": 88178, "BSTAR": 0.00019814565, "MEAN_MOTION_DOT": 5.73e-06, "MEAN_MOTION_DDOT": 0}, "tle": {"line1": "1 33841U 93036CJ  25351.20410127  .00000573  00000+0  19815-3 0  9994", "line2": "2 33841  74.0378 269.8223 0020732 349.3649 131.1068 14.37867342881781"}}, "geometry": {"type": "Point", "coordinates": [-104.76299669891718, -39.70065981052883]}}, {"type": "Feature", "properties": {"norad_id": 33842, "name": "COSMOS 2251 DEB", "group": "cosmos-2251-debris", "lat": -57.49373084043928, "lon": -176.18066054735962, "alt_km": 724.1586671553996, "timestamp": "2025-12-17T15:50:10.174565+00:00", "meta": {"OBJECT_NAME": "COSMOS 2251 DEB", "OBJECT_ID": "1993-036CK", "EPOCH": "2025-12-17T01:08:22.069824", "MEAN_MOTION": 14.42706194, "ECCENTRICITY": 0.00474155, "INCLINATION": 74.0323, "RA_OF_ASC_NODE": 211.6561, "ARG_OF_PERICENTER": 318.1283, "MEAN_ANOMALY": 41.625, "EPHEMERIS_TYPE": 0, "CLASSIFICATION_TYPE": "U", "NORAD_CAT_ID": 33842, "ELEMENT_SET_NO": 999, "REV_AT_EPOCH": 88399, "BSTAR": 0.00024738645, "MEAN_MOTION_DOT": 8.07e-06, "MEAN_MOTION_DDOT": 0}, "tle": {"line1": "1 33842U 93036CK  25351.04747766  .00000807  00000+0  24739-3 0  9990", "line2": "2 33842  74.0323 211.6561 0047415 318.1283  41.6250 14.42706194883993"}}, "geometry": {"type": "Point", "coordinates": [-176.18066054735962, -57.49373084043928]}}, {"type": "Feature", "properties": {"norad_id": 33844, "name": "COSMOS 2251 DEB", "group": "cosmos-2251-debris", "lat": 65.05114268364262, "lon": 81.67917720179497, "alt_km": 739.1338529701452, "timestamp": "2025-12-17T15:50:10.174575+00:00", "meta": {"OBJECT_NAME": "COSMOS 2251 DEB", "OBJECT_ID": "1993-036CM", "EPOCH": "2025-12-17T07:31:23.102112", "MEAN_MOTION": 14.33725525, "ECCENTRICITY": 0.00470502, "INCLINATION": 74.0669, "RA_OF_ASC_NODE": 44.4288, "ARG_OF_PERICENTER": 64.8724, "MEAN_ANOMALY": 18.5744, "EPHEMERIS_TYPE": 0, "CLASSIFICATION_TYPE": "U", "NORAD_CAT_ID": 33844, "ELEMENT_SET_NO": 999, "REV_AT_EPOCH": 87791, "BSTAR": 0.00030206363, "MEAN_MOTION_DOT": 8.24e-06, "MEAN_MOTION_DDOT": 0}, "tle": {"line1": "1 33844U 93036CM  25351.31346183  .00000824  00000+0  30206-3 0  9995", "line2": "2 33844  74.0669  44.4288 0047050  64.8724  18.5744 14.33725525877911"}}, "geometry": {"type": "Point", "coordinates": [81.67917720179497, 65.05114268364262]}}, {"type": "Feature", "properties": {"norad_id": 33848, "name": "COSMOS 2251 DEB", "group": "cosmos-2251-debris", "lat": 67.0483538556074, "lon": 31.03234952414767, "alt_km": 712.6949151045992, "timestamp": "2025-12-17T15:50:10.174586+00:00", "meta": {"OBJECT_NAME": "COSMOS 2251 DEB", "OBJECT_ID": "1993-036CR", "EPOCH": "2025-12-17T07:15:33.653376", "MEAN_MOTION": 14.440924, "ECCENTRICITY": 0.00413638, "INCLINATION": 74.0315, "RA_OF_ASC_NODE": 349.1532, "ARG_OF_PERICENTER": 43.5879, "MEAN_ANOMALY": 332.4007, "EPHEMERIS_TYPE": 0, "CLASSIFICATION_TYPE": "U", "NORAD_CAT_ID": 33848, "ELEMENT_SET_NO": 999, "REV_AT_EPOCH": 87897, "BSTAR": 0.00083558673, "MEAN_MOTION_DOT": 2.866e-05, "MEAN_MOTION_DDOT": 0}, "tle": {"line1": "1 33848U 93036CR  25351.30247284  .00002866  00000+0  83559-3 0  9997", "line2": "2 33848  74.0315 349.1532 0041363  43.5879 332.4007 14.44092400878974"}}, "geometry": {"type": "Point", "coordinates": [31.03234952414767, 67.0483538556074]}}, {"type": "Feature", "properties": {"norad_id": 33892, "name": "COSMOS 2251 DEB", "group": "cosmos-2251-debris", "lat": -9.911009493809244, "lon": 90.17150203492324, "alt_km": 873.1456577804729, "timestamp": "2025-12-17T15:50:10.174597+00:00", "meta": {"OBJECT_NAME": "COSMOS 2251 DEB", "OBJECT_ID": "1993-036CV", "EPOCH": "2025-12-17T07:44:11.357952", "MEAN_MOTION": 14.23355589, "ECCENTRICITY": 0.01125744, "INCLINATION": 73.8033, "RA_OF_ASC_NODE": 93.6979, "ARG_OF_PERICENTER": 124.0439, "MEAN_ANOMALY": 298.0529, "EPHEMERIS_TYPE": 0, "CLASSIFICATION_TYPE": "U", "NORAD_CAT_ID": 33892, "ELEMENT_SET_NO": 999, "REV_AT_EPOCH": 87020, "BSTAR": 0.00055576673, "MEAN_MOTION_DOT": 1.319e-05, "MEAN_MOTION_DDOT": 0}, "tle": {"line1": "1 33892U 93036CV  25351.32235368  .00001319  00000+0  55577-3 0  9999", "line2": "2 33892  73.8033  93.6979 0112574 124.0439 298.0529 14.23355589870204"}}, "geometry": {"type": "Point", "coordinates": [90.17150203492324, -9.911009493809244]}}, {"type": "Feature", "properties": {"norad_id": 33894, "name": "COSMOS 2251 DEB", "group": "cosmos-2251-debris", "lat": -68.46331676661119, "lon": -150.95755952985118, "alt_km": 749.9469025979324, "timestamp": "2025-12-17T15:50:10.174607+00:00", "meta": {"OBJECT_NAME": "COSMOS 2251 DEB", "OBJECT_ID": "1993-036CX", "EPOCH": "2025-12-16T23:58:28.001280", "MEAN_MOTION": 13.21315162, "ECCENTRICITY": 0.05793568, "INCLINATION": 73.767, "RA_OF_ASC_NODE": 342.4883, "ARG_OF_PERICENTER": 261.3454, "MEAN_ANOMALY": 92.1624, "EPHEMERIS_TYPE": 0, "CLASSIFICATION_TYPE": "U", "NORAD_CAT_ID": 33894, "ELEMENT_SET_NO": 999, "REV_AT_EPOCH": 80764, "BSTAR": 0.00077215059, "MEAN_MOTION_DOT": 7.45e-06, "MEAN_MOTION_DDOT": 0}, "tle": {"line1": "1 33894U 93036CX  25350.99893520  .00000745  00000+0  77215-3 0  9998", "line2": "2 33894  73.7670 342.4883 0579356 261.3454  92.1624 13.21315162807645"}}, "geometry": {"type": "Point", "coordinates": [-150.95755952985118, -68.46331676661119]}}, {"type": "Feature", "properties": {"norad_id": 33896, "name": "COSMOS 2251 DEB", "group": "cosmos-2251-debris", "lat": -15.230396448618485, "lon": 143.2009544687045, "alt_km": 747.8951856515705, "timestamp": "2025-12-17T15:50:10.174618+00:00", "meta": {"OBJECT_NAME": "COSMOS 2251 DEB", "OBJECT_ID": "1993-036CZ", "EPOCH": "2025-12-16T21:52:37.034400", "MEAN_MOTION": 14.19049308, "ECCENTRICITY": 0.01265802, "INCLINATION": 73.7659, "RA_OF_ASC_NODE": 149.1089, "ARG_OF_PERICENTER": 324.1445, "MEAN_ANOMALY": 158.2915, "EPHEMERIS_TYPE": 0, "CLASSIFICATION_TYPE": "U", "NORAD_CAT_ID": 33896, "ELEMENT_SET_NO": 999, "REV_AT_EPOCH": 86799, "BSTAR": 0.00047098383, "MEAN_MOTION_DOT": 1.038e-05, "MEAN_MOTION_DDOT": 0}, "tle": {"line1": "1 33896U 93036CZ  25350.91153975  .00001038  00000+0  47098-3 0  9997", "line2": "2 33896  73.7659 149.1089 0126580 324.1445 158.2915 14.19049308867994"}}, "geometry": {"type": "Point", "coordinates": [143.2009544687045, -15.230396448618485]}}, {"type": "Feature", "properties": {"norad_id": 33899, "name": "COSMOS 2251 DEB", "group": "cosmos-2251-debris", "lat": 27.436273946449425, "lon": 84.86480340505614, "alt_km": 700.4596970782386, "timestamp": "2025-12-17T15:50:10.174629+00:00", "meta": {"OBJECT_NAME": "COSMOS 2251 DEB", "OBJECT_ID": "1993-036DC", "EPOCH": "2025-12-17T05:59:20.077152", "MEAN_MOTION": 14.61231428, "ECCENTRICITY": 0.00563831, "INCLINATION": 74.0543, "RA_OF_ASC_NODE": 77.1121, "ARG_OF_PERICENTER": 138.5587, "MEAN_ANOMALY": 253.3064, "EPHEMERIS_TYPE": 0, "CLASSIFICATION_TYPE": "U", "NORAD_CAT_ID": 33899, "ELEMENT_SET_NO": 999, "REV_AT_EPOCH": 88905, "BSTAR": 0.00069387322, "MEAN_MOTION_DOT": 3.47e-05, "MEAN_MOTION_DDOT": 0}, "tle": {"line1": "1 33899U 93036DC  25351.24953793  .00003470  00000+0  69387-3 0  9990", "line2": "2 33899  74.0543  77.1121 0056383 138.5587 253.3064 14.61231428889053"}}, "geometry": {"type": "Point", "coordinates": [84.86480340505614, 27.436273946449425]}}, {"type": "Feature", "properties": {"norad_id": 33900, "name": "COSMOS 2251 DEB", "group": "cosmos-2251-debris", "lat": 13.112441442549141, "lon": -5.683496066375803, "alt_km": 719.2180551996935, "timestamp": "2025-12-17T15:50:10.174639+00:00", "meta": {"OBJECT_NAME": "COSMOS 2251 DEB", "OBJECT_ID": "1993-036DD", "EPOCH": "2025-12-17T08:04:17.692896", "MEAN_MOTION": 14.58362983, "ECCENTRICITY": 0.00466341, "INCLINATION": 74.0182, "RA_OF_ASC_NODE": 351.1049, "ARG_OF_PERICENTER": 141.9141, "MEAN_ANOMALY": 334.4315, "EPHEMERIS_TYPE": 0, "CLASSIFICATION_TYPE": "U", "NORAD_CAT_ID": 33900, "ELEMENT_SET_NO": 999, "REV_AT_EPOCH": 89103, "BSTAR": 0.00032459388, "MEAN_MOTION_DOT": 1.496e-05, "MEAN_MOTION_DDOT": 0}, "tle": {"line1": "1 33900U 93036DD  25351.33631589  .00001496  00000+0  32459-3 0  9995", "line2": "2 33900  74.0182 351.1049 0046634 141.9141 334.4315 14.58362983891039"}}, "geometry": {"type": "Point", "coordinates": [-5.683496066375803, 13.112441442549141]}}, {"type": "Feature", "properties": {"norad_id": 33901, "name": "COSMOS 2251 DEB", "group": "cosmos-2251-debris", "lat": -56.84680350057225, "lon": 12.4030845662603, "alt_km": 536.5233003561852, "timestamp": "2025-12-17T15:50:10.174649+00:00", "meta": {"OBJECT_NAME": "COSMOS 2251 DEB", "OBJECT_ID": "1993-036DE", "EPOCH": "2025-12-17T05:01:17.750208", "MEAN_MOTION": 15.16434287, "ECCENTRICITY": 0.00308958, "INCLINATION": 73.7746, "RA_OF_ASC_NODE": 39.8322, "ARG_OF_PERICENTER": 171.6325, "MEAN_ANOMALY": 188.5391, "EPHEMERIS_TYPE": 0, "CLASSIFICATION_TYPE": "U", "NORAD_CAT_ID": 33901, "ELEMENT_SET_NO": 999, "REV_AT_EPOCH": 89581, "BSTAR": 0.0022590482, "MEAN_MOTION_DOT": 0.00044708, "MEAN_MOTION_DDOT": 0}, "tle": {"line1": "1 33901U 93036DE  25351.20923322  .00044708  00000+0  22590-2 0  9998", "line2": "2 33901  73.7746  39.8322 0030895 171.6325 188.5391 15.16434287895816"}}, "geometry": {"type": "Point", "coordinates": [12.4030845662603, -56.84680350057225]}}]}